OBJECT_NAME,OBJECT_ID,EPOCH,MEAN_MOTION,ECCENTRICITY,INCLINATION,RA_OF_ASC_NODE,ARG_OF_PERICENTER,MEAN_ANOMALY,EPHEMERIS_TYPE,CLASSIFICATION_TYPE,NORAD_CAT_ID,ELEMENT_SET_NO,REV_AT_EPOCH,BSTAR,MEAN_MOTION_DOT,MEAN_MOTION_DDOT
RWASAT-1,1998-067QV,2021-02-06T10:44:25.048032,15.56592524,.0007981,51.6399,256.6082,160.7033,263.2331,0,U,44790,999,6902,.15478E-3,.10749E-3,0
AQT-D,1998-067QW,2021-02-06T14:31:06.148992,15.56625341,.0007195,51.6402,256.3568,138.3278,221.8263,0,U,44791,999,6904,.92975E-4,.626E-4,0
NARSSCUBE-1,1998-067QX,2021-02-06T14:17:24.780480,15.59876216,.0005639,51.6374,252.4756,157.8129,202.3109,0,U,44792,999,6909,.14411E-3,.11327E-3,0
BEIDOU-3 M21,2019-078A,2021-02-06T03:49:20.120160,1.86232350,.0007101,55.0652,7.6899,348.3951,186.8698,0,U,44793,999,820,.1E-3,-.86E-6,0
BEIDOU-3 M22,2019-078B,2021-02-06T06:03:20.473056,1.86232933,.0005149,55.0403,7.6907,338.7401,169.6482,0,U,44794,999,820,.1E-3,-.86E-6,0
COSMOS 2542,2019-079A,2021-02-06T13:26:17.521728,14.93904440,.0405983,97.7640,99.4789,312.2490,44.4945,0,U,44797,999,6516,.13554E-3,.8014E-4,0
TIBA-1,2019-080A,2021-02-06T13:41:52.462176,1.00274378,.0001813,0.0520,21.7894,304.9406,51.1176,0,U,44800,999,443,0,.148E-5,0
INMARSAT GX5,2019-080B,2021-02-06T08:24:41.059008,1.00269770,.0001675,0.0501,69.5695,242.4762,321.7579,0,U,44801,999,448,0,.67E-6,0
CARTOSAT-3,2019-081A,2021-02-05T05:33:56.717280,15.19208230,.0014722,97.4645,100.7732,146.3643,285.3171,0,U,44804,999,6614,.15653E-3,.3235E-4,0
MESHBED,2019-081C,2021-02-06T04:47:17.496384,15.20692191,.001481,97.4670,102.1630,155.6385,204.5554,0,U,44806,999,6636,.93515E-4,.199E-4,0
FLOCK 4P-9,2019-081D,2021-02-06T04:09:09.974304,15.20800676,.00142,97.4665,102.2191,157.5675,202.6184,0,U,44807,999,6637,.41946E-4,.857E-5,0
FLOCK 4P-10,2019-081E,2021-02-06T10:19:38.217216,15.20809246,.0014219,97.4669,102.5041,156.5541,203.6346,0,U,44808,999,6641,.44391E-4,.911E-5,0
FLOCK 4P-11,2019-081F,2021-02-06T10:02:16.582272,15.20805177,.0014175,97.4667,102.5066,157.1191,203.0679,0,U,44809,999,6641,.45343E-4,.932E-5,0
FLOCK 4P-12,2019-081G,2021-02-06T13:03:21.131712,15.20813247,.0013862,97.4667,102.6588,156.3820,203.8055,0,U,44810,999,6643,.29684E-4,.586E-5,0
FLOCK 4P-4,2019-081H,2021-02-06T03:01:06.956544,15.20799978,.0013264,97.4698,102.3888,147.8651,212.3396,0,U,44811,999,6637,.11091E-3,.238E-4,0
FLOCK 4P-3,2019-081J,2021-02-06T10:46:14.175552,15.20802931,.0013127,97.4697,102.7212,146.5155,213.6913,0,U,44812,999,6642,.88332E-4,.1881E-4,0
FLOCK 4P-2,2019-081K,2021-02-06T04:52:40.280736,15.20808071,.0012731,97.4677,102.3918,148.3498,211.8506,0,U,44813,999,6638,.5791E-4,.1209E-4,0
FLOCK 4P-1,2019-081L,2021-02-06T11:03:11.904480,15.20809367,.0012808,97.4679,102.6585,147.2534,212.9497,0,U,44814,999,6642,.10772E-3,.231E-4,0
FLOCK 4P-7,2019-081N,2021-02-06T02:43:44.995872,15.20801604,.0012217,97.4677,102.3503,149.5351,210.6596,0,U,44816,999,6637,.4231E-4,.864E-5,0
FLOCK 4P-6,2019-081P,2021-02-06T03:27:11.612160,15.20802367,.0011961,97.4677,102.4523,149.5441,210.6491,0,U,44817,999,6638,.68608E-4,.1445E-4,0
FLOCK 4P-5,2019-081Q,2021-02-06T10:11:47.089248,15.20805705,.0011816,97.4678,102.7028,149.7680,210.4240,0,U,44818,999,6642,.40873E-4,.833E-5,0
GAOFEN 12,2019-082A,2021-02-06T13:56:55.254912,14.80241318,.0001184,97.8966,62.0466,65.6375,294.4960,0,U,44819,999,6458,.85273E-5,.13E-6,0
ALE-2,2019-084A,2021-02-06T13:18:07.361568,15.55803383,.0013186,96.9504,262.0256,137.2230,223.0054,0,U,44824,999,6652,.39991E-4,.2676E-4,0
COSMOS 2543,2019-079D,2021-02-06T14:13:34.256640,14.86286102,.0009654,97.8448,94.3634,193.7381,166.3574,0,U,44835,999,6295,.14151E-4,.7E-6,0
JILIN-01 GAOFEN 2B,2019-086A,2021-02-06T14:54:32.881824,15.09472592,.0009414,97.4824,104.5567,243.0530,250.8298,0,U,44836,999,6449,-.50973E-8,-.62E-6,0
2019-087A,2019-087A,2021-02-06T13:04:27.275232,15.22166919,.0011999,97.4207,195.8228,201.1181,244.9772,0,U,44838,999,6494,.10026E-3,.2233E-4,0
2019-087B,2019-087B,2021-02-06T12:07:58.536768,15.21814438,.0012256,97.4193,195.6478,201.8780,228.6417,0,U,44839,999,6494,.63514E-4,.1374E-4,0
2019-087C,2019-087C,2021-02-06T12:14:44.117376,15.22074258,.0011402,97.4264,196.1802,204.2729,226.9689,0,U,44840,999,6495,.70682E-4,.1549E-4,0
2019-087D,2019-087D,2021-02-06T13:00:35.395776,15.23697851,.0009779,97.4116,196.1878,195.5659,249.9870,0,U,44841,999,6499,.16014E-3,.3777E-4,0
2019-087E,2019-087E,2021-02-06T12:26:15.800352,15.22298417,.0010752,97.4154,195.6942,206.0024,227.4995,0,U,44842,999,6496,.72254E-4,.1596E-4,0
2019-087F,2019-087F,2021-02-06T12:50:02.844096,15.22159446,.0012245,97.4218,195.9953,216.2240,217.0550,0,U,44843,999,6495,.68932E-4,.1513E-4,0
