RWASAT-1                
1 44790U 98067QV  21037.44751213  .00010749  00000-0  15478-3 0  9993
2 44790  51.6399 256.6082 0007981 160.7033 263.2331 15.56592524 69024
AQT-D                   
1 44791U 98067QW  21037.60493228  .00006260  00000-0  92975-4 0  9992
2 44791  51.6402 256.3568 0007195 138.3278 221.8263 15.56625341 69045
NARSSCUBE-1             
1 44792U 98067QX  21037.59542570  .00011327  00000-0  14411-3 0  9994
2 44792  51.6374 252.4756 0005639 157.8129 202.3109 15.59876216 69092
BEIDOU-3 M21            
1 44793U 19078A   21037.15926065 -.00000086  00000-0  10000-3 0  9998
2 44793  55.0652   7.6899 0007101 348.3951 186.8698  1.86232350  8209
BEIDOU-3 M22            
1 44794U 19078B   21037.25232029 -.00000086  00000-0  10000-3 0  9990
2 44794  55.0403   7.6907 0005149 338.7401 169.6482  1.86232933  8204
COSMOS 2542             
1 44797U 19079A   21037.55992502  .00008014  00000-0  13554-3 0  9991
2 44797  97.7640  99.4789 0405983 312.2490  44.4945 14.93904440 65168
TIBA-1                  
1 44800U 19080A   21037.57074609  .00000148  00000-0  00000-0 0  9998
2 44800   0.0520  21.7894 0001813 304.9406  51.1176  1.00274378  4439
INMARSAT GX5            
1 44801U 19080B   21037.35047522  .00000067  00000-0  00000-0 0  9999
2 44801   0.0501  69.5695 0001675 242.4762 321.7579  1.00269770  4483
CARTOSAT-3              
1 44804U 19081A   21036.23190645  .00003235  00000-0  15653-3 0  9997
2 44804  97.4645 100.7732 0014722 146.3643 285.3171 15.19208230 66145
MESHBED                 
1 44806U 19081C   21037.19950806  .00001990  00000-0  93515-4 0  9998
2 44806  97.4670 102.1630 0014810 155.6385 204.5554 15.20692191 66369
FLOCK 4P-9              
1 44807U 19081D   21037.17303211  .00000857  00000-0  41946-4 0  9991
2 44807  97.4665 102.2191 0014200 157.5675 202.6184 15.20800676 66371
FLOCK 4P-10             
1 44808U 19081E   21037.43030344  .00000911  00000-0  44391-4 0  9993
2 44808  97.4669 102.5041 0014219 156.5541 203.6346 15.20809246 66412
FLOCK 4P-11             
1 44809U 19081F   21037.41824748  .00000932  00000-0  45343-4 0  9992
2 44809  97.4667 102.5066 0014175 157.1191 203.0679 15.20805177 66419
FLOCK 4P-12             
1 44810U 19081G   21037.54399458  .00000586  00000-0  29684-4 0  9998
2 44810  97.4667 102.6588 0013862 156.3820 203.8055 15.20813247 66438
FLOCK 4P-4              
1 44811U 19081H   21037.12577496  .00002380  00000-0  11091-3 0  9999
2 44811  97.4698 102.3888 0013264 147.8651 212.3396 15.20799978 66376
FLOCK 4P-3              
1 44812U 19081J   21037.44877518  .00001881  00000-0  88332-4 0  9991
2 44812  97.4697 102.7212 0013127 146.5155 213.6913 15.20802931 66423
FLOCK 4P-2              
1 44813U 19081K   21037.20324399  .00001209  00000-0  57910-4 0  9992
2 44813  97.4677 102.3918 0012731 148.3498 211.8506 15.20808071 66385
FLOCK 4P-1              
1 44814U 19081L   21037.46055445  .00002310  00000-0  10772-3 0  9992
2 44814  97.4679 102.6585 0012808 147.2534 212.9497 15.20809367 66420
FLOCK 4P-7              
1 44816U 19081N   21037.11371523  .00000864  00000-0  42310-4 0  9990
2 44816  97.4677 102.3503 0012217 149.5351 210.6596 15.20801604 66378
FLOCK 4P-6              
1 44817U 19081P   21037.14388440  .00001445  00000-0  68608-4 0  9994
2 44817  97.4677 102.4523 0011961 149.5441 210.6491 15.20802367 66389
FLOCK 4P-5              
1 44818U 19081Q   21037.42485057  .00000833  00000-0  40873-4 0  9992
2 44818  97.4678 102.7028 0011816 149.7680 210.4240 15.20805705 66424
GAOFEN 12               
1 44819U 19082A   21037.58119508  .00000013  00000-0  85273-5 0  9990
2 44819  97.8966  62.0466 0001184  65.6375 294.4960 14.80241318 64582
ALE-2                   
1 44824U 19084A   21037.55425187  .00002676  00000-0  39991-4 0  9990
2 44824  96.9504 262.0256 0013186 137.2230 223.0054 15.55803383 66523
COSMOS 2543             
1 44835U 19079D   21037.59275760  .00000070  00000-0  14151-4 0  9997
2 44835  97.8448  94.3634 0009654 193.7381 166.3574 14.86286102 62953
JILIN-01 GAOFEN 2B      
1 44836U 19086A   21037.62121391 -.00000062  00000-0 -50973-8 0  9999
2 44836  97.4824 104.5567 0009414 243.0530 250.8298 15.09472592 64495
2019-087A               
1 44838U 19087A   21037.54476013  .00002233  00000-0  10026-3 0  9997
2 44838  97.4207 195.8228 0011999 201.1181 244.9772 15.22166919 64946
2019-087B               
1 44839U 19087B   21037.50553862  .00001374  00000-0  63514-4 0  9998
2 44839  97.4193 195.6478 0012256 201.8780 228.6417 15.21814438 64945
2019-087C               
1 44840U 19087C   21037.51023284  .00001549  00000-0  70682-4 0  9999
2 44840  97.4264 196.1802 0011402 204.2729 226.9689 15.22074258 64957
2019-087D               
1 44841U 19087D   21037.54207634  .00003777  00000-0  16014-3 0  9999
2 44841  97.4116 196.1878 0009779 195.5659 249.9870 15.23697851 64997
2019-087E               
1 44842U 19087E   21037.51823843  .00001596  00000-0  72254-4 0  9999
2 44842  97.4154 195.6942 0010752 206.0024 227.4995 15.22298417 64963
2019-087F               
1 44843U 19087F   21037.53475514  .00001513  00000-0  68932-4 0  9997
2 44843  97.4218 195.9953 0012245 216.2240 217.0550 15.22159446 64951
